<?xml version="1.0" encoding="UTF-8"?>
<kml xmlns="http://www.opengis.net/kml/2.2"><Document><name>Celina to Halifax 2028 — Option B (6 weeks)</name>
<Style id="r"><LineStyle><color>ff66522e</color><width>4</width></LineStyle></Style>
<Placemark><name>Route</name><styleUrl>#r</styleUrl><LineString><tessellate>1</tessellate><coordinates>-84.0603,39.71,0 -84.0596,39.7214,0 -84.1033,39.741,0 -84.1487,39.7541,0 -84.1881,39.7534,0 -84.1912,39.7639,0 -84.2051,39.7623,0 -84.3188,39.8455,0 -84.3398,39.8558,0 -84.3727,39.8558,0 -84.4163,39.9198,0 -84.6192,40.0665,0 -84.6075,40.0836,0 -84.6113,40.1506,0 -84.5696,40.2406,0 -84.5775,40.5099,0 -84.5708,40.549,0 -84.5857,40.5528,0 -84.5857,40.5528,0 -84.1683,40.5534,0 -84.0732,40.7688,0 -83.6881,41.0,0 -83.6204,41.5287,0 -83.2425,42.0824,0 -83.239,42.1985,0 -83.1203,42.3009,0 -82.9917,42.233,0 -82.606,42.2321,0 -82.3621,42.2805,0 -82.0344,42.3974,0 -81.5721,42.6378,0 -81.2022,42.9301,0 -80.9216,42.9807,0 -80.7207,43.1162,0 -80.1817,43.1684,0 -79.9463,43.2314,0 -79.8186,43.1964,0 -79.7624,43.2479,0 -79.5205,43.1894,0 -79.1893,43.1667,0 -79.1348,43.1379,0 -79.1418,43.0906,0 -79.1418,43.0906,0 -79.1175,43.0959,0 -79.1223,43.1253,0 -79.1888,43.1667,0 -79.5219,43.1897,0 -79.755,43.2457,0 -79.8261,43.3286,0 -79.551,43.6123,0 -79.5775,43.6755,0 -79.5523,43.7093,0 -79.4419,43.7315,0 -79.3916,43.7622,0 -79.1479,43.796,0 -79.0551,43.8459,0 -78.9738,43.8647,0 -78.831,43.8869,0 -78.7909,43.8753,0 -78.7116,43.8853,0 -78.1166,44.0042,0 -78.0643,43.9976,0 -77.8851,44.0272,0 -77.5247,44.1601,0 -77.2927,44.2213,0 -76.8649,44.2758,0 -76.5814,44.2899,0 -76.4935,44.269,0 -76.3789,44.3164,0 -76.1635,44.3452,0 -76.1241,44.336,0 -76.0239,44.365,0 -76.0239,44.365,0 -75.9759,44.3686,0 -75.9808,44.3817,0 -75.8997,44.4277,0 -75.828,44.5148,0 -75.7703,44.5267,0 -75.7658,44.549,0 -75.7297,44.5835,0 -75.6505,44.6333,0 -75.5558,44.7116,0 -75.5265,44.7219,0 -75.4685,44.7611,0 -75.4546,44.7797,0 -75.3311,44.8569,0 -75.0855,44.9629,0 -75.0743,44.9803,0 -74.9199,45.042,0 -74.8379,45.0675,0 -74.762,45.0514,0 -74.6472,45.068,0 -74.3877,45.1843,0 -74.3269,45.2205,0 -74.2216,45.2669,0 -74.1756,45.3036,0 -74.0542,45.3541,0 -74.0044,45.2952,0 -73.9525,45.3073,0 -73.8814,45.2902,0 -73.7995,45.3359,0 -73.7439,45.3447,0 -73.6751,45.3426,0 -73.6229,45.3689,0 -73.5223,45.3539,0 -73.5162,45.3317,0 -73.4893,45.3467,0 -73.4893,45.3467,0 -73.5062,45.3705,0 -73.3814,45.4843,0 -73.3673,45.5739,0 -73.1372,45.5953,0 -72.8535,45.6663,0 -72.8026,45.6915,0 -72.5168,45.9092,0 -72.4863,45.9108,0 -72.315,46.0544,0 -72.0609,46.214,0 -72.0577,46.2432,0 -71.6332,46.5429,0 -71.5061,46.6206,0 -71.3047,46.7017,0 -71.3047,46.7017,0 -71.2811,46.7234,0 -71.1895,46.7492,0 -71.1261,46.8026,0 -70.9828,46.8167,0 -70.8784,46.8698,0 -70.7867,46.8709,0 -70.6254,46.9565,0 -70.541,46.9702,0 -70.4293,47.0254,0 -70.3429,47.0874,0 -70.3368,47.1169,0 -70.2293,47.2065,0 -70.174,47.2888,0 -70.0522,47.3737,0 -70.0305,47.4069,0 -69.9168,47.448,0 -69.7503,47.5839,0 -69.7043,47.6634,0 -69.5452,47.8132,0 -69.5082,47.8115,0 -69.4395,47.7649,0 -69.243,47.6844,0 -69.1176,47.6923,0 -69.0543,47.6686,0 -69.021,47.6781,0 -68.9762,47.6669,0 -68.9278,47.6864,0 -68.8913,47.6788,0 -68.8049,47.612,0 -68.7176,47.5862,0 -68.6879,47.5559,0 -68.5504,47.5269,0 -68.3941,47.4409,0 -68.3941,47.4409,0 -68.3176,47.3759,0 -68.1746,47.3491,0 -68.0306,47.2848,0 -67.9328,47.2132,0 -67.9031,47.1504,0 -67.7818,47.0932,0 -67.7652,47.0701,0 -67.7679,47.0302,0 -67.7221,46.9872,0 -67.7407,46.9644,0 -67.7391,46.8926,0 -67.713,46.8455,0 -67.7331,46.8259,0 -67.7141,46.7525,0 -67.7405,46.6994,0 -67.7491,46.5685,0 -67.6756,46.4937,0 -67.6386,46.3848,0 -67.5784,46.2945,0 -67.6013,46.2611,0 -67.6098,46.1326,0 -67.5718,46.0907,0 -67.5598,46.0236,0 -67.5188,45.9979,0 -67.4222,45.9493,0 -67.2577,45.9527,0 -66.8747,45.8324,0 -66.7632,45.9286,0 -66.7266,45.9332,0 -66.6319,45.8768,0 -66.5068,45.8424,0 -66.4685,45.8174,0 -66.4274,45.8283,0 -66.4045,45.8593,0 -66.2751,45.8556,0 -66.2254,45.8259,0 -66.1737,45.8388,0 -66.126,45.8249,0 -65.9615,45.8914,0 -65.8785,45.8971,0 -65.8257,45.9405,0 -65.7945,45.9278,0 -65.7702,45.8789,0 -65.5886,45.7759,0 -65.5501,45.7307,0 -65.4377,45.7272,0 -65.3288,45.7798,0 -65.2692,45.7333,0 -65.1911,45.7223,0 -65.1639,45.6676,0 -65.0859,45.6235,0 -65.0619,45.6295,0 -65.0128,45.6055,0 -64.951,45.5988,0 -64.951,45.5988,0 -64.8768,45.6573,0 -64.837,45.6464,0 -64.7427,45.7483,0 -64.6356,45.779,0 -64.5797,45.8308,0 -64.5795,45.8597,0 -64.6258,45.8882,0 -64.6481,45.9265,0 -64.6933,45.9721,0 -64.7261,46.053,0 -64.7572,46.0742,0 -64.7831,46.0731,0 -64.7874,46.0791,0 -64.763,46.1006,0 -64.6995,46.1143,0 -64.5803,46.207,0 -64.4095,46.2122,0 -64.353,46.1978,0 -64.3158,46.2051,0 -64.2629,46.2033,0 -64.183,46.1556,0 -64.1333,46.1362,0 -64.1093,46.07,0 -64.0931,46.0537,0 -63.8591,46.1141,0 -63.842,46.1419,0 -63.7019,46.2542,0 -63.6557,46.2568,0 -63.6249,46.2764,0 -63.6413,46.3209,0 -63.6031,46.3228,0 -63.6253,46.3727,0 -63.5608,46.3868,0 -63.5133,46.4494,0 -63.5112,46.4645,0 -63.4541,46.4612,0 -63.4094,46.4828,0 -63.4079,46.4972,0 -63.4079,46.4972,0 -63.4094,46.4828,0 -63.3714,46.4926,0 -63.3484,46.4932,0 -63.3132,46.4585,0 -63.3188,46.452,0 -63.3147,46.4262,0 -63.2791,46.4089,0 -63.2419,46.3998,0 -63.2159,46.3396,0 -63.2122,46.3022,0 -63.186,46.2991,0 -63.1591,46.282,0 -63.1528,46.2732,0 -63.1306,46.2749,0 -63.1197,46.2588,0 -63.1138,46.2582,0 -63.1139,46.2413,0 -63.0985,46.2282,0 -63.0733,46.2162,0 -63.0053,46.216,0 -62.9682,46.2218,0 -62.959,46.2084,0 -62.9485,46.2048,0 -62.9356,46.1915,0 -62.9247,46.175,0 -62.8855,46.1788,0 -62.8418,46.1626,0 -62.8064,46.1008,0 -62.747,45.9535,0 -62.6863,45.7389,0 -62.7282,45.694,0 -62.7294,45.6437,0 -62.7049,45.5918,0 -62.7089,45.5805,0 -62.675,45.579,0 -62.6371,45.5615,0 -62.533,45.5927,0 -62.4008,45.5725,0 -62.3169,45.5868,0 -62.2751,45.5868,0 -62.2332,45.5681,0 -62.1721,45.5803,0 -62.1345,45.5654,0 -62.0001,45.6114,0 -61.8544,45.5902,0 -61.7692,45.5888,0 -61.6198,45.6166,0 -61.572,45.643,0 -61.536,45.6774,0 -61.4669,45.6753,0 -61.4249,45.6414,0 -61.4015,45.6464,0 -61.3972,45.6578,0 -61.3783,45.6636,0 -61.3708,45.6922,0 -61.3516,45.7124,0 -61.3572,45.7262,0 -61.323,45.7796,0 -61.3329,45.8068,0 -61.2822,45.8428,0 -61.2121,45.9202,0 -61.1278,45.9517,0 -61.1345,45.968,0 -61.1267,45.9747,0 -61.0991,45.9614,0 -61.0825,45.9617,0 -61.0066,45.9926,0 -60.9466,46.0498,0 -60.9192,46.0621,0 -60.9119,46.0825,0 -60.8823,46.0955,0 -60.8527,46.0906,0 -60.8527,46.0906,0 -60.9119,46.0825,0 -61.0066,45.9926,0 -61.0825,45.9617,0 -61.1272,45.9748,0 -61.1278,45.9517,0 -61.2121,45.9202,0 -61.3329,45.8068,0 -61.3227,45.7807,0 -61.3516,45.7124,0 -61.4018,45.6464,0 -61.4292,45.6419,0 -61.4683,45.6757,0 -61.5365,45.6774,0 -61.6336,45.6124,0 -61.771,45.5886,0 -62.0008,45.6117,0 -62.1353,45.5656,0 -62.172,45.5806,0 -62.2333,45.5684,0 -62.3174,45.5871,0 -62.4002,45.5727,0 -62.533,45.593,0 -62.6365,45.5618,0 -62.7125,45.5826,0 -62.958,45.5154,0 -63.1949,45.3997,0 -63.3279,45.3912,0 -63.3034,45.3419,0 -63.2989,45.2192,0 -63.3855,45.1124,0 -63.4281,45.1022,0 -63.4334,45.0628,0 -63.5396,44.9539,0 -63.5329,44.8756,0 -63.5915,44.8348,0 -63.6019,44.8066,0 -63.5614,44.757,0 -63.5652,44.7339,0 -63.54,44.7278,0 -63.5537,44.7073,0 -63.5537,44.7073,0 -63.5386,44.7288,0 -63.5619,44.7378,0 -63.6011,44.806,0 -63.5914,44.8344,0 -63.5326,44.8752,0 -63.5391,44.954,0 -63.4331,45.0626,0 -63.4279,45.1019,0 -63.3852,45.1122,0 -63.2984,45.2197,0 -63.3029,45.3406,0 -63.325,45.3907,0 -63.3579,45.3814,0 -63.4921,45.3955,0 -63.6387,45.4558,0 -63.7094,45.5302,0 -63.7433,45.6616,0 -63.7761,45.6947,0 -63.8942,45.7232,0 -64.0171,45.6943,0 -64.1818,45.8049,0 -64.2254,45.8106,0 -64.2836,45.8794,0 -64.3871,45.9159,0 -64.4243,45.9664,0 -64.5136,45.9976,0 -64.542,46.0371,0 -64.5845,46.0505,0 -64.5978,46.0934,0 -64.6459,46.1281,0 -64.8987,46.1309,0 -64.9582,46.0805,0 -65.056,46.0509,0 -65.1369,45.9983,0 -65.1296,45.9601,0 -65.2869,45.8374,0 -65.3117,45.7885,0 -65.438,45.7277,0 -65.5252,45.7338,0 -65.5851,45.682,0 -65.697,45.6311,0 -65.7593,45.5621,0 -65.808,45.5434,0 -65.8163,45.4925,0 -65.8488,45.4607,0 -65.9408,45.4165,0 -66.0515,45.292,0 -66.0515,45.292,0 -66.0852,45.2547,0 -66.2112,45.1979,0 -66.2725,45.2053,0 -66.3038,45.1912,0 -66.3353,45.1929,0 -66.3591,45.1809,0 -66.4631,45.1883,0 -66.5054,45.1498,0 -66.6764,45.1049,0 -66.7404,45.1131,0 -66.7786,45.1315,0 -66.846,45.134,0 -67.002,45.1997,0 -67.0709,45.1942,0 -67.1097,45.1995,0 -67.1949,45.242,0 -67.2141,45.2219,0 -67.2944,45.2049,0 -67.2993,45.1958,0 -67.2875,45.1922,0 -67.2971,45.1706,0 -67.2859,45.1497,0 -67.3187,45.1284,0 -67.4237,45.1117,0 -67.5024,45.0864,0 -67.5147,45.0705,0 -67.5491,45.0582,0 -67.5608,45.0338,0 -67.5544,45.0011,0 -67.6214,44.9998,0 -67.6633,44.9518,0 -67.7296,44.9398,0 -67.8082,44.904,0 -67.8546,44.9104,0 -67.8637,44.8798,0 -67.931,44.8704,0 -67.9882,44.8741,0 -68.0556,44.8553,0 -68.0826,44.8305,0 -68.1054,44.8247,0 -68.1507,44.8403,0 -68.2529,44.8314,0 -68.2854,44.8591,0 -68.3202,44.8574,0 -68.3641,44.8323,0 -68.3622,44.8121,0 -68.3812,44.796,0 -68.3729,44.78,0 -68.4098,44.7492,0 -68.4047,44.7238,0 -68.4148,44.7201,0 -68.4266,44.6383,0 -68.4517,44.6009,0 -68.4539,44.569,0 -68.3974,44.5235,0 -68.366,44.4834,0 -68.364,44.4218,0 -68.3346,44.399,0 -68.3306,44.3689,0 -68.3046,44.3606,0 -68.275,44.2925,0 -68.2455,44.2943,0 -68.2392,44.3036,0 -68.2277,44.2994,0 -68.2141,44.3134,0 -68.2041,44.3088,0 -68.2041,44.3088,0 -68.275,44.2925,0 -68.3046,44.3606,0 -68.3306,44.3689,0 -68.3642,44.4223,0 -68.366,44.4834,0 -68.425,44.5411,0 -68.498,44.54,0 -68.6241,44.5678,0 -68.7076,44.5599,0 -68.7396,44.5768,0 -68.8068,44.5608,0 -68.8164,44.5081,0 -68.9603,44.4316,0 -69.0065,44.4342,0 -69.1354,44.3973,0 -69.1816,44.4106,0 -69.3116,44.4085,0 -69.3852,44.3682,0 -69.403,44.3808,0 -69.4485,44.3769,0 -69.4851,44.4107,0 -69.5277,44.4103,0 -69.6156,44.3839,0 -69.6544,44.3442,0 -69.764,44.3239,0 -69.7808,44.3077,0 -69.8554,44.3257,0 -69.935,44.3184,0 -70.0597,44.2553,0 -70.1025,44.2037,0 -70.1636,44.183,0 -70.2199,44.0975,0 -70.2978,44.0771,0 -70.3921,44.1113,0 -70.4247,44.0381,0 -70.473,43.9873,0 -70.5546,43.9859,0 -70.5777,43.9649,0 -70.6516,43.9905,0 -70.7016,44.054,0 -70.7769,44.0698,0 -70.8488,44.0628,0 -70.9038,44.0297,0 -70.9746,44.0215,0 -71.0,43.9991,0 -71.0833,43.9932,0 -71.1146,44.0175,0 -71.1531,44.1026,0 -71.1789,44.1053,0 -71.1789,44.1053,0 -71.1857,44.1096,0 -71.2004,44.1029,0 -71.2151,44.0853,0 -71.302,44.0734,0 -71.3404,44.0772,0 -71.3532,44.089,0 -71.368,44.164,0 -71.3933,44.173,0 -71.4105,44.2204,0 -71.459,44.2637,0 -71.562,44.2761,0 -71.619,44.2667,0 -71.6537,44.2821,0 -71.7174,44.2787,0 -71.7793,44.304,0 -71.7945,44.3034,0 -71.8013,44.3258,0 -71.8555,44.3142,0 -71.8879,44.3368,0 -71.9049,44.3704,0 -71.9226,44.3829,0 -71.9209,44.4116,0 -71.9443,44.4279,0 -72.0166,44.3977,0 -72.0319,44.429,0 -72.0564,44.4446,0 -72.1398,44.4116,0 -72.2133,44.4063,0 -72.2535,44.3891,0 -72.2649,44.3717,0 -72.318,44.3638,0 -72.3678,44.3438,0 -72.3978,44.3098,0 -72.3992,44.2917,0 -72.4187,44.2813,0 -72.4601,44.269,0 -72.4865,44.2713,0 -72.5059,44.2431,0 -72.5256,44.2372,0 -72.5497,44.2467,0 -72.5621,44.2155,0 -72.586,44.2172,0 -72.5769,44.171,0 -72.6129,44.107,0 -72.605,44.0518,0 -72.628,43.987,0 -72.6167,43.8806,0 -72.5814,43.8255,0 -72.6308,43.8282,0 -72.6396,43.8123,0 -72.6628,43.8072,0 -72.6639,43.7937,0 -72.7235,43.7587,0 -72.7673,43.7764,0 -72.8105,43.7757,0 -72.827,43.7147,0 -72.8063,43.6683,0 -72.8172,43.6629,0 -72.8612,43.6664,0 -72.9002,43.6483,0 -72.9266,43.652,0 -72.9726,43.6106,0 -72.9678,43.579,0 -73.0109,43.5933,0 -73.0463,43.5883,0 -73.0662,43.6054,0 -73.0941,43.6132,0 -73.1745,43.6165,0 -73.1905,43.6233,0 -73.2461,43.6058,0 -73.2782,43.6058,0 -73.288,43.5898,0 -73.3341,43.562,0 -73.3682,43.5503,0 -73.4054,43.5486,0 -73.4322,43.4734,0 -73.4879,43.4143,0 -73.54,43.404,0 -73.6003,43.4041,0 -73.698,43.3693,0 -73.7121,43.427,0 -73.7121,43.427,0 -73.6748,43.2676,0 -73.7897,43.0115,0 -73.8304,43.016,0 -73.9721,42.9742,0 -74.113,42.9677,0 -74.1206,42.9512,0 -74.1939,42.9395,0 -74.1971,42.9239,0 -74.3831,42.948,0 -74.4667,42.8972,0 -74.5237,42.8934,0 -74.6062,42.9151,0 -74.6715,42.9895,0 -74.7252,42.9899,0 -74.8061,43.0171,0 -74.8847,43.0047,0 -75.0104,43.018,0 -75.1155,43.0823,0 -75.2731,43.137,0 -75.3873,43.123,0 -75.4827,43.1363,0 -75.6097,43.1259,0 -75.7618,43.0902,0 -76.1573,43.0919,0 -76.2358,43.1181,0 -76.3241,43.0902,0 -76.6061,43.0529,0 -76.715,43.0018,0 -76.8523,42.9695,0 -76.836,42.9028,0 -76.9444,42.8773,0 -76.9007,42.8295,0 -76.901,42.7181,0 -76.901,42.7181,0 -76.9049,42.8433,0 -76.9445,42.8773,0 -76.9805,42.8701,0 -76.9821,42.9568,0 -77.4165,42.9989,0 -77.5769,43.0476,0 -78.3928,43.0103,0 -78.6099,42.9504,0 -78.758,42.9519,0 -78.8196,42.7645,0 -79.138,42.5271,0 -79.2975,42.4641,0 -79.3668,42.4551,0 -79.4076,42.4168,0 -79.7554,42.2576,0 -79.8512,42.1693,0 -80.0693,42.0541,0 -80.1877,42.0192,0 -80.1917,42.0015,0 -80.1917,42.0015,0 -80.2395,42.0054,0 -80.3856,41.9466,0 -80.5081,41.9428,0 -80.6582,41.8854,0 -80.7402,41.8323,0 -80.7918,41.8265,0 -80.8777,41.775,0 -81.0462,41.7596,0 -81.2914,41.651,0 -81.3776,41.6395,0 -81.4398,41.6018,0 -81.4453,41.5198,0 -81.4842,41.4976,0 -81.5087,41.4247,0 -81.5284,41.2821,0 -81.5987,41.2358,0 -81.7511,41.1889,0 -81.8852,41.0333,0 -82.0257,40.9931,0 -82.141,40.9118,0 -82.4004,40.7948,0 -82.5233,40.6863,0 -82.6045,40.5785,0 -82.8131,40.4336,0 -82.8276,40.3761,0 -82.9234,40.3008,0 -82.9317,40.205,0 -82.9682,40.1598,0 -82.9983,40.0608,0 -82.9868,39.9799,0 -83.0305,39.9644,0 -83.2453,39.9813,0 -83.4414,39.9423,0 -83.6673,39.9352,0 -83.7363,39.8906,0 -83.9194,39.893,0 -83.9957,39.8666,0 -84.004,39.7837,0 -84.0521,39.7758,0 -84.0603,39.71,0</coordinates></LineString></Placemark>
<Placemark><name>1. ACI International Rally — Mercer County Fairgrounds (rally parking)</name><description>Fri Jun 23 to Thu Jun 29, 6 night(s). Candidate campground.</description><Point><coordinates>-84.5856,40.5529,0</coordinates></Point></Placemark><Placemark><name>2. Niagara Falls — Niagara Falls KOA Holiday</name><description>Thu Jun 29 to Sat Jul 1, 2 night(s). Candidate campground.</description><Point><coordinates>-79.1418,43.0905,0</coordinates></Point></Placemark><Placemark><name>2. Niagara Falls — Campark Resorts</name><description>Thu Jun 29 to Sat Jul 1, 2 night(s). Candidate campground.</description><Point><coordinates>-79.1527,43.087,0</coordinates></Point></Placemark><Placemark><name>3. Thousand Islands — 1000 Islands / Ivy Lea KOA</name><description>Sat Jul 1 to Mon Jul 3, 2 night(s). Candidate campground.</description><Point><coordinates>-76.0239,44.365,0</coordinates></Point></Placemark><Placemark><name>4. Montréal — KOA Montréal Sud (Saint-Philippe)</name><description>Mon Jul 3 to Wed Jul 5, 2 night(s). Candidate campground.</description><Point><coordinates>-73.4892,45.3467,0</coordinates></Point></Placemark><Placemark><name>4. Montréal — Camping Alouette (Saint-Mathieu-de-Beloeil)</name><description>Mon Jul 3 to Wed Jul 5, 2 night(s). Candidate campground.</description><Point><coordinates>-73.2731,45.5938,0</coordinates></Point></Placemark><Placemark><name>5. Québec City — KOA Québec City (Saint-Nicolas, south shore)</name><description>Wed Jul 5 to Sat Jul 8, 3 night(s). Candidate campground.</description><Point><coordinates>-71.3047,46.7017,0</coordinates></Point></Placemark><Placemark><name>5. Québec City — Camping de la Joie (Charlesbourg)</name><description>Wed Jul 5 to Sat Jul 8, 3 night(s). Candidate campground.</description><Point><coordinates>-71.3284,46.8945,0</coordinates></Point></Placemark><Placemark><name>6. Edmundston (overnight) — Parc provincial de la République</name><description>Sat Jul 8 to Sun Jul 9, 1 night(s). Candidate campground.</description><Point><coordinates>-68.3939,47.4413,0</coordinates></Point></Placemark><Placemark><name>7. Fundy National Park — Headquarters Campground (Parks Canada)</name><description>Sun Jul 9 to Wed Jul 12, 3 night(s). Candidate campground.</description><Point><coordinates>-64.9511,45.5988,0</coordinates></Point></Placemark><Placemark><name>8. Prince Edward Island — Cavendish Campground (PEI National Park)</name><description>Wed Jul 12 to Sat Jul 15, 3 night(s). Candidate campground.</description><Point><coordinates>-63.4075,46.4975,0</coordinates></Point></Placemark><Placemark><name>9. Cape Breton — Baddeck Cabot Trail Campground</name><description>Sat Jul 15 to Tue Jul 18, 3 night(s). Candidate campground.</description><Point><coordinates>-60.8532,46.0908,0</coordinates></Point></Placemark><Placemark><name>9. Cape Breton — Broad Cove Campground (Cape Breton Highlands NP)</name><description>Sat Jul 15 to Tue Jul 18, 3 night(s). Candidate campground.</description><Point><coordinates>-60.3592,46.7113,0</coordinates></Point></Placemark><Placemark><name>10. Halifax &amp; South Shore — Shubie Campground (Dartmouth)</name><description>Tue Jul 18 to Sat Jul 22, 4 night(s). Candidate campground.</description><Point><coordinates>-63.5543,44.708,0</coordinates></Point></Placemark><Placemark><name>10. Halifax &amp; South Shore — Graves Island Provincial Park (Chester)</name><description>Tue Jul 18 to Sat Jul 22, 4 night(s). Candidate campground.</description><Point><coordinates>-64.2058,44.5592,0</coordinates></Point></Placemark><Placemark><name>11. Saint John (overnight) — Rockwood Park Campground</name><description>Sat Jul 22 to Sun Jul 23, 1 night(s). Candidate campground.</description><Point><coordinates>-66.0516,45.2921,0</coordinates></Point></Placemark><Placemark><name>12. Acadia National Park — Blackwoods Campground (NPS)</name><description>Sun Jul 23 to Thu Jul 27, 4 night(s). Candidate campground.</description><Point><coordinates>-68.2042,44.3091,0</coordinates></Point></Placemark><Placemark><name>12. Acadia National Park — Seawall Campground (NPS)</name><description>Sun Jul 23 to Thu Jul 27, 4 night(s). Candidate campground.</description><Point><coordinates>-68.3041,44.2406,0</coordinates></Point></Placemark><Placemark><name>12. Acadia National Park — Bar Harbor Campground</name><description>Sun Jul 23 to Thu Jul 27, 4 night(s). Candidate campground.</description><Point><coordinates>-68.266,44.4333,0</coordinates></Point></Placemark><Placemark><name>13. White Mountains — Glen Ellis Family Campground</name><description>Thu Jul 27 to Sat Jul 29, 2 night(s). Candidate campground.</description><Point><coordinates>-71.1789,44.1051,0</coordinates></Point></Placemark><Placemark><name>15. Finger Lakes (overnight) — Sampson State Park</name><description>Sun Jul 30 to Mon Jul 31, 1 night(s). Candidate campground.</description><Point><coordinates>-76.901,42.7181,0</coordinates></Point></Placemark><Placemark><name>16. Erie (overnight) — Erie KOA Holiday</name><description>Mon Jul 31 to Tue Aug 1, 1 night(s). Candidate campground.</description><Point><coordinates>-80.1922,42.0014,0</coordinates></Point></Placemark><Placemark><name>16. Erie (overnight) — Sara&#x27;s Campground</name><description>Mon Jul 31 to Tue Aug 1, 1 night(s). Candidate campground.</description><Point><coordinates>-80.1536,42.1122,0</coordinates></Point></Placemark></Document></kml>