<?xml version="1.0" encoding="UTF-8"?>
<gpx version="1.1" creator="halifax-caravan-2028" xmlns="http://www.topografix.com/GPX/1/1">
<wpt lat="40.5529" lon="-84.5856"><name>1. Mercer County Fairgrounds (rally parking)</name><desc>ACI International Rally, Fri Jun 23 for 6 night(s)</desc></wpt><wpt lat="43.0905" lon="-79.1418"><name>2. Niagara Falls KOA Holiday</name><desc>Niagara Falls, Thu Jun 29 for 2 night(s)</desc></wpt><wpt lat="44.365" lon="-76.0239"><name>3. 1000 Islands / Ivy Lea KOA</name><desc>Thousand Islands, Sat Jul 1 for 1 night(s)</desc></wpt><wpt lat="46.7017" lon="-71.3047"><name>4. KOA Québec City (Saint-Nicolas, south shore)</name><desc>Québec City, Sun Jul 2 for 3 night(s)</desc></wpt><wpt lat="47.4413" lon="-68.3939"><name>5. Parc provincial de la République</name><desc>Edmundston (overnight), Wed Jul 5 for 1 night(s)</desc></wpt><wpt lat="45.5988" lon="-64.9511"><name>6. Headquarters Campground (Parks Canada)</name><desc>Fundy National Park, Thu Jul 6 for 3 night(s)</desc></wpt><wpt lat="46.4975" lon="-63.4075"><name>7. Cavendish Campground (PEI National Park)</name><desc>Prince Edward Island, Sun Jul 9 for 3 night(s)</desc></wpt><wpt lat="46.0908" lon="-60.8532"><name>8. Baddeck Cabot Trail Campground</name><desc>Cape Breton, Wed Jul 12 for 3 night(s)</desc></wpt><wpt lat="44.708" lon="-63.5543"><name>9. Shubie Campground (Dartmouth)</name><desc>Halifax &amp; South Shore, Sat Jul 15 for 3 night(s)</desc></wpt><wpt lat="45.2921" lon="-66.0516"><name>10. Rockwood Park Campground</name><desc>Saint John (overnight), Tue Jul 18 for 1 night(s)</desc></wpt><wpt lat="44.3091" lon="-68.2042"><name>11. Blackwoods Campground (NPS)</name><desc>Acadia National Park, Wed Jul 19 for 3 night(s)</desc></wpt><wpt lat="44.1051" lon="-71.1789"><name>12. Glen Ellis Family Campground</name><desc>White Mountains, Sat Jul 22 for 2 night(s)</desc></wpt><wpt lat="42.7181" lon="-76.901"><name>14. Sampson State Park</name><desc>Finger Lakes (overnight), Tue Jul 25 for 1 night(s)</desc></wpt><wpt lat="42.0014" lon="-80.1922"><name>15. Erie KOA Holiday</name><desc>Erie (overnight), Wed Jul 26 for 1 night(s)</desc></wpt><trk><name>Celina to Halifax 2028 — Option A</name><trkseg><trkpt lat="39.71" lon="-84.0603"/><trkpt lat="39.7214" lon="-84.0596"/><trkpt lat="39.741" lon="-84.1033"/><trkpt lat="39.7541" lon="-84.1487"/><trkpt lat="39.7534" lon="-84.1881"/><trkpt lat="39.7639" lon="-84.1912"/><trkpt lat="39.7623" lon="-84.2051"/><trkpt lat="39.8455" lon="-84.3188"/><trkpt lat="39.8558" lon="-84.3398"/><trkpt lat="39.8558" lon="-84.3727"/><trkpt lat="39.9198" lon="-84.4163"/><trkpt lat="40.0665" lon="-84.6192"/><trkpt lat="40.0836" lon="-84.6075"/><trkpt lat="40.1506" lon="-84.6113"/><trkpt lat="40.2406" lon="-84.5696"/><trkpt lat="40.5099" lon="-84.5775"/><trkpt lat="40.549" lon="-84.5708"/><trkpt lat="40.5528" lon="-84.5857"/><trkpt lat="40.5528" lon="-84.5857"/><trkpt lat="40.5534" lon="-84.1683"/><trkpt lat="40.7688" lon="-84.0732"/><trkpt lat="41.0" lon="-83.6881"/><trkpt lat="41.5287" lon="-83.6204"/><trkpt lat="42.0824" lon="-83.2425"/><trkpt lat="42.1985" lon="-83.239"/><trkpt lat="42.3009" lon="-83.1203"/><trkpt lat="42.233" lon="-82.9917"/><trkpt lat="42.2321" lon="-82.606"/><trkpt lat="42.2805" lon="-82.3621"/><trkpt lat="42.3974" lon="-82.0344"/><trkpt lat="42.6378" lon="-81.5721"/><trkpt lat="42.9301" lon="-81.2022"/><trkpt lat="42.9807" lon="-80.9216"/><trkpt lat="43.1162" lon="-80.7207"/><trkpt lat="43.1684" lon="-80.1817"/><trkpt lat="43.2314" lon="-79.9463"/><trkpt lat="43.1964" lon="-79.8186"/><trkpt lat="43.2479" lon="-79.7624"/><trkpt lat="43.1894" lon="-79.5205"/><trkpt lat="43.1667" lon="-79.1893"/><trkpt lat="43.1379" lon="-79.1348"/><trkpt lat="43.0906" lon="-79.1418"/><trkpt lat="43.0906" lon="-79.1418"/><trkpt lat="43.0959" lon="-79.1175"/><trkpt lat="43.1253" lon="-79.1223"/><trkpt lat="43.1667" lon="-79.1888"/><trkpt lat="43.1897" lon="-79.5219"/><trkpt lat="43.2457" lon="-79.755"/><trkpt lat="43.3286" lon="-79.8261"/><trkpt lat="43.6123" lon="-79.551"/><trkpt lat="43.6755" lon="-79.5775"/><trkpt lat="43.7093" lon="-79.5523"/><trkpt lat="43.7315" lon="-79.4419"/><trkpt lat="43.7622" lon="-79.3916"/><trkpt lat="43.796" lon="-79.1479"/><trkpt lat="43.8459" lon="-79.0551"/><trkpt lat="43.8647" lon="-78.9738"/><trkpt lat="43.8869" lon="-78.831"/><trkpt lat="43.8753" lon="-78.7909"/><trkpt lat="43.8853" lon="-78.7116"/><trkpt lat="44.0042" lon="-78.1166"/><trkpt lat="43.9976" lon="-78.0643"/><trkpt lat="44.0272" lon="-77.8851"/><trkpt lat="44.1601" lon="-77.5247"/><trkpt lat="44.2213" lon="-77.2927"/><trkpt lat="44.2758" lon="-76.8649"/><trkpt lat="44.2899" lon="-76.5814"/><trkpt lat="44.269" lon="-76.4935"/><trkpt lat="44.3164" lon="-76.3789"/><trkpt lat="44.3452" lon="-76.1635"/><trkpt lat="44.336" lon="-76.1241"/><trkpt lat="44.365" lon="-76.0239"/><trkpt lat="44.365" lon="-76.0239"/><trkpt lat="44.3686" lon="-75.9759"/><trkpt lat="44.3817" lon="-75.9808"/><trkpt lat="44.4277" lon="-75.8997"/><trkpt lat="44.5148" lon="-75.828"/><trkpt lat="44.5267" lon="-75.7703"/><trkpt lat="44.5835" lon="-75.7297"/><trkpt lat="44.7797" lon="-75.4546"/><trkpt lat="44.9808" lon="-75.073"/><trkpt lat="45.0673" lon="-74.8397"/><trkpt lat="45.0514" lon="-74.762"/><trkpt lat="45.068" lon="-74.6472"/><trkpt lat="45.354" lon="-74.0544"/><trkpt lat="45.2952" lon="-74.0044"/><trkpt lat="45.3073" lon="-73.9525"/><trkpt lat="45.2902" lon="-73.881"/><trkpt lat="45.3359" lon="-73.7995"/><trkpt lat="45.3426" lon="-73.6751"/><trkpt lat="45.3688" lon="-73.6235"/><trkpt lat="45.356" lon="-73.516"/><trkpt lat="45.4831" lon="-73.3821"/><trkpt lat="45.5741" lon="-73.367"/><trkpt lat="45.5953" lon="-73.1372"/><trkpt lat="45.6712" lon="-72.8397"/><trkpt lat="45.7804" lon="-72.671"/><trkpt lat="45.9093" lon="-72.5166"/><trkpt lat="45.9107" lon="-72.4864"/><trkpt lat="46.0544" lon="-72.315"/><trkpt lat="46.214" lon="-72.0609"/><trkpt lat="46.2432" lon="-72.0577"/><trkpt lat="46.5429" lon="-71.6332"/><trkpt lat="46.6206" lon="-71.5061"/><trkpt lat="46.7017" lon="-71.3047"/><trkpt lat="46.7017" lon="-71.3047"/><trkpt lat="46.7234" lon="-71.2811"/><trkpt lat="46.7492" lon="-71.1895"/><trkpt lat="46.8026" lon="-71.1261"/><trkpt lat="46.8167" lon="-70.9828"/><trkpt lat="46.8698" lon="-70.8784"/><trkpt lat="46.8709" lon="-70.7867"/><trkpt lat="46.9565" lon="-70.6254"/><trkpt lat="46.9702" lon="-70.541"/><trkpt lat="47.0254" lon="-70.4293"/><trkpt lat="47.0874" lon="-70.3429"/><trkpt lat="47.1169" lon="-70.3368"/><trkpt lat="47.2065" lon="-70.2293"/><trkpt lat="47.2888" lon="-70.174"/><trkpt lat="47.3737" lon="-70.0522"/><trkpt lat="47.4069" lon="-70.0305"/><trkpt lat="47.448" lon="-69.9168"/><trkpt lat="47.5839" lon="-69.7503"/><trkpt lat="47.6634" lon="-69.7043"/><trkpt lat="47.8132" lon="-69.5452"/><trkpt lat="47.8115" lon="-69.5082"/><trkpt lat="47.7649" lon="-69.4395"/><trkpt lat="47.6844" lon="-69.243"/><trkpt lat="47.6923" lon="-69.1176"/><trkpt lat="47.6686" lon="-69.0543"/><trkpt lat="47.6781" lon="-69.021"/><trkpt lat="47.6669" lon="-68.9762"/><trkpt lat="47.6864" lon="-68.9278"/><trkpt lat="47.6788" lon="-68.8913"/><trkpt lat="47.612" lon="-68.8049"/><trkpt lat="47.5862" lon="-68.7176"/><trkpt lat="47.5559" lon="-68.6879"/><trkpt lat="47.5269" lon="-68.5504"/><trkpt lat="47.4409" lon="-68.3941"/><trkpt lat="47.4409" lon="-68.3941"/><trkpt lat="47.3759" lon="-68.3176"/><trkpt lat="47.3491" lon="-68.1746"/><trkpt lat="47.2848" lon="-68.0306"/><trkpt lat="47.2132" lon="-67.9328"/><trkpt lat="47.1504" lon="-67.9031"/><trkpt lat="47.0932" lon="-67.7818"/><trkpt lat="47.0701" lon="-67.7652"/><trkpt lat="47.0302" lon="-67.7679"/><trkpt lat="46.9872" lon="-67.7221"/><trkpt lat="46.9644" lon="-67.7407"/><trkpt lat="46.8926" lon="-67.7391"/><trkpt lat="46.8455" lon="-67.713"/><trkpt lat="46.8259" lon="-67.7331"/><trkpt lat="46.7525" lon="-67.7141"/><trkpt lat="46.6994" lon="-67.7405"/><trkpt lat="46.5685" lon="-67.7491"/><trkpt lat="46.4937" lon="-67.6756"/><trkpt lat="46.3848" lon="-67.6386"/><trkpt lat="46.2945" lon="-67.5784"/><trkpt lat="46.2611" lon="-67.6013"/><trkpt lat="46.1326" lon="-67.6098"/><trkpt lat="46.0907" lon="-67.5718"/><trkpt lat="46.0236" lon="-67.5598"/><trkpt lat="45.9979" lon="-67.5188"/><trkpt lat="45.9493" lon="-67.4222"/><trkpt lat="45.9527" lon="-67.2577"/><trkpt lat="45.8324" lon="-66.8747"/><trkpt lat="45.9286" lon="-66.7632"/><trkpt lat="45.9332" lon="-66.7266"/><trkpt lat="45.8768" lon="-66.6319"/><trkpt lat="45.8424" lon="-66.5068"/><trkpt lat="45.8174" lon="-66.4685"/><trkpt lat="45.8283" lon="-66.4274"/><trkpt lat="45.8593" lon="-66.4045"/><trkpt lat="45.8556" lon="-66.2751"/><trkpt lat="45.8259" lon="-66.2254"/><trkpt lat="45.8388" lon="-66.1737"/><trkpt lat="45.8249" lon="-66.126"/><trkpt lat="45.8914" lon="-65.9615"/><trkpt lat="45.8971" lon="-65.8785"/><trkpt lat="45.9405" lon="-65.8257"/><trkpt lat="45.9278" lon="-65.7945"/><trkpt lat="45.8789" lon="-65.7702"/><trkpt lat="45.7759" lon="-65.5886"/><trkpt lat="45.7307" lon="-65.5501"/><trkpt lat="45.7272" lon="-65.4377"/><trkpt lat="45.7798" lon="-65.3288"/><trkpt lat="45.7333" lon="-65.2692"/><trkpt lat="45.7223" lon="-65.1911"/><trkpt lat="45.6676" lon="-65.1639"/><trkpt lat="45.6235" lon="-65.0859"/><trkpt lat="45.6295" lon="-65.0619"/><trkpt lat="45.6055" lon="-65.0128"/><trkpt lat="45.5988" lon="-64.951"/><trkpt lat="45.5988" lon="-64.951"/><trkpt lat="45.6573" lon="-64.8768"/><trkpt lat="45.6464" lon="-64.837"/><trkpt lat="45.7483" lon="-64.7427"/><trkpt lat="45.779" lon="-64.6356"/><trkpt lat="45.8308" lon="-64.5797"/><trkpt lat="45.8597" lon="-64.5795"/><trkpt lat="45.8882" lon="-64.6258"/><trkpt lat="45.9265" lon="-64.6481"/><trkpt lat="45.9721" lon="-64.6933"/><trkpt lat="46.053" lon="-64.7261"/><trkpt lat="46.0742" lon="-64.7572"/><trkpt lat="46.0731" lon="-64.7831"/><trkpt lat="46.0791" lon="-64.7874"/><trkpt lat="46.1006" lon="-64.763"/><trkpt lat="46.1143" lon="-64.6995"/><trkpt lat="46.207" lon="-64.5803"/><trkpt lat="46.2122" lon="-64.4095"/><trkpt lat="46.1978" lon="-64.353"/><trkpt lat="46.2051" lon="-64.3158"/><trkpt lat="46.2033" lon="-64.2629"/><trkpt lat="46.1556" lon="-64.183"/><trkpt lat="46.1362" lon="-64.1333"/><trkpt lat="46.07" lon="-64.1093"/><trkpt lat="46.0537" lon="-64.0931"/><trkpt lat="46.1141" lon="-63.8591"/><trkpt lat="46.1419" lon="-63.842"/><trkpt lat="46.2542" lon="-63.7019"/><trkpt lat="46.2568" lon="-63.6557"/><trkpt lat="46.2764" lon="-63.6249"/><trkpt lat="46.3209" lon="-63.6413"/><trkpt lat="46.3228" lon="-63.6031"/><trkpt lat="46.3727" lon="-63.6253"/><trkpt lat="46.3868" lon="-63.5608"/><trkpt lat="46.4494" lon="-63.5133"/><trkpt lat="46.4645" lon="-63.5112"/><trkpt lat="46.4612" lon="-63.4541"/><trkpt lat="46.4828" lon="-63.4094"/><trkpt lat="46.4972" lon="-63.4079"/><trkpt lat="46.4972" lon="-63.4079"/><trkpt lat="46.4828" lon="-63.4094"/><trkpt lat="46.4926" lon="-63.3714"/><trkpt lat="46.4932" lon="-63.3484"/><trkpt lat="46.4585" lon="-63.3132"/><trkpt lat="46.452" lon="-63.3188"/><trkpt lat="46.4262" lon="-63.3147"/><trkpt lat="46.4089" lon="-63.2791"/><trkpt lat="46.3998" lon="-63.2419"/><trkpt lat="46.3396" lon="-63.2159"/><trkpt lat="46.3022" lon="-63.2122"/><trkpt lat="46.2991" lon="-63.186"/><trkpt lat="46.282" lon="-63.1591"/><trkpt lat="46.2732" lon="-63.1528"/><trkpt lat="46.2749" lon="-63.1306"/><trkpt lat="46.2588" lon="-63.1197"/><trkpt lat="46.2582" lon="-63.1138"/><trkpt lat="46.2413" lon="-63.1139"/><trkpt lat="46.2282" lon="-63.0985"/><trkpt lat="46.2162" lon="-63.0733"/><trkpt lat="46.216" lon="-63.0053"/><trkpt lat="46.2218" lon="-62.9682"/><trkpt lat="46.2084" lon="-62.959"/><trkpt lat="46.2048" lon="-62.9485"/><trkpt lat="46.1915" lon="-62.9356"/><trkpt lat="46.175" lon="-62.9247"/><trkpt lat="46.1788" lon="-62.8855"/><trkpt lat="46.1626" lon="-62.8418"/><trkpt lat="46.1008" lon="-62.8064"/><trkpt lat="45.9535" lon="-62.747"/><trkpt lat="45.7389" lon="-62.6863"/><trkpt lat="45.694" lon="-62.7282"/><trkpt lat="45.6437" lon="-62.7294"/><trkpt lat="45.5918" lon="-62.7049"/><trkpt lat="45.5805" lon="-62.7089"/><trkpt lat="45.579" lon="-62.675"/><trkpt lat="45.5615" lon="-62.6371"/><trkpt lat="45.5927" lon="-62.533"/><trkpt lat="45.5725" lon="-62.4008"/><trkpt lat="45.5868" lon="-62.3169"/><trkpt lat="45.5868" lon="-62.2751"/><trkpt lat="45.5681" lon="-62.2332"/><trkpt lat="45.5803" lon="-62.1721"/><trkpt lat="45.5654" lon="-62.1345"/><trkpt lat="45.6114" lon="-62.0001"/><trkpt lat="45.5902" lon="-61.8544"/><trkpt lat="45.5888" lon="-61.7692"/><trkpt lat="45.6166" lon="-61.6198"/><trkpt lat="45.643" lon="-61.572"/><trkpt lat="45.6774" lon="-61.536"/><trkpt lat="45.6753" lon="-61.4669"/><trkpt lat="45.6414" lon="-61.4249"/><trkpt lat="45.6464" lon="-61.4015"/><trkpt lat="45.6578" lon="-61.3972"/><trkpt lat="45.6636" lon="-61.3783"/><trkpt lat="45.6922" lon="-61.3708"/><trkpt lat="45.7124" lon="-61.3516"/><trkpt lat="45.7262" lon="-61.3572"/><trkpt lat="45.7796" lon="-61.323"/><trkpt lat="45.8068" lon="-61.3329"/><trkpt lat="45.8428" lon="-61.2822"/><trkpt lat="45.9202" lon="-61.2121"/><trkpt lat="45.9517" lon="-61.1278"/><trkpt lat="45.968" lon="-61.1345"/><trkpt lat="45.9747" lon="-61.1267"/><trkpt lat="45.9614" lon="-61.0991"/><trkpt lat="45.9617" lon="-61.0825"/><trkpt lat="45.9926" lon="-61.0066"/><trkpt lat="46.0498" lon="-60.9466"/><trkpt lat="46.0621" lon="-60.9192"/><trkpt lat="46.0825" lon="-60.9119"/><trkpt lat="46.0955" lon="-60.8823"/><trkpt lat="46.0906" lon="-60.8527"/><trkpt lat="46.0906" lon="-60.8527"/><trkpt lat="46.0825" lon="-60.9119"/><trkpt lat="45.9926" lon="-61.0066"/><trkpt lat="45.9617" lon="-61.0825"/><trkpt lat="45.9748" lon="-61.1272"/><trkpt lat="45.9517" lon="-61.1278"/><trkpt lat="45.9202" lon="-61.2121"/><trkpt lat="45.8068" lon="-61.3329"/><trkpt lat="45.7807" lon="-61.3227"/><trkpt lat="45.7124" lon="-61.3516"/><trkpt lat="45.6464" lon="-61.4018"/><trkpt lat="45.6419" lon="-61.4292"/><trkpt lat="45.6757" lon="-61.4683"/><trkpt lat="45.6774" lon="-61.5365"/><trkpt lat="45.6124" lon="-61.6336"/><trkpt lat="45.5886" lon="-61.771"/><trkpt lat="45.6117" lon="-62.0008"/><trkpt lat="45.5656" lon="-62.1353"/><trkpt lat="45.5806" lon="-62.172"/><trkpt lat="45.5684" lon="-62.2333"/><trkpt lat="45.5871" lon="-62.3174"/><trkpt lat="45.5727" lon="-62.4002"/><trkpt lat="45.593" lon="-62.533"/><trkpt lat="45.5618" lon="-62.6365"/><trkpt lat="45.5826" lon="-62.7125"/><trkpt lat="45.5154" lon="-62.958"/><trkpt lat="45.3997" lon="-63.1949"/><trkpt lat="45.3912" lon="-63.3279"/><trkpt lat="45.3419" lon="-63.3034"/><trkpt lat="45.2192" lon="-63.2989"/><trkpt lat="45.1124" lon="-63.3855"/><trkpt lat="45.1022" lon="-63.4281"/><trkpt lat="45.0628" lon="-63.4334"/><trkpt lat="44.9539" lon="-63.5396"/><trkpt lat="44.8756" lon="-63.5329"/><trkpt lat="44.8348" lon="-63.5915"/><trkpt lat="44.8066" lon="-63.6019"/><trkpt lat="44.757" lon="-63.5614"/><trkpt lat="44.7339" lon="-63.5652"/><trkpt lat="44.7278" lon="-63.54"/><trkpt lat="44.7073" lon="-63.5537"/><trkpt lat="44.7073" lon="-63.5537"/><trkpt lat="44.7288" lon="-63.5386"/><trkpt lat="44.7378" lon="-63.5619"/><trkpt lat="44.806" lon="-63.6011"/><trkpt lat="44.8344" lon="-63.5914"/><trkpt lat="44.8752" lon="-63.5326"/><trkpt lat="44.954" lon="-63.5391"/><trkpt lat="45.0626" lon="-63.4331"/><trkpt lat="45.1019" lon="-63.4279"/><trkpt lat="45.1122" lon="-63.3852"/><trkpt lat="45.2197" lon="-63.2984"/><trkpt lat="45.3406" lon="-63.3029"/><trkpt lat="45.3907" lon="-63.325"/><trkpt lat="45.3814" lon="-63.3579"/><trkpt lat="45.3955" lon="-63.4921"/><trkpt lat="45.4558" lon="-63.6387"/><trkpt lat="45.5302" lon="-63.7094"/><trkpt lat="45.6616" lon="-63.7433"/><trkpt lat="45.6947" lon="-63.7761"/><trkpt lat="45.7232" lon="-63.8942"/><trkpt lat="45.6943" lon="-64.0171"/><trkpt lat="45.8049" lon="-64.1818"/><trkpt lat="45.8106" lon="-64.2254"/><trkpt lat="45.8794" lon="-64.2836"/><trkpt lat="45.9159" lon="-64.3871"/><trkpt lat="45.9664" lon="-64.4243"/><trkpt lat="45.9976" lon="-64.5136"/><trkpt lat="46.0371" lon="-64.542"/><trkpt lat="46.0505" lon="-64.5845"/><trkpt lat="46.0934" lon="-64.5978"/><trkpt lat="46.1281" lon="-64.6459"/><trkpt lat="46.1309" lon="-64.8987"/><trkpt lat="46.0805" lon="-64.9582"/><trkpt lat="46.0509" lon="-65.056"/><trkpt lat="45.9983" lon="-65.1369"/><trkpt lat="45.9601" lon="-65.1296"/><trkpt lat="45.8374" lon="-65.2869"/><trkpt lat="45.7885" lon="-65.3117"/><trkpt lat="45.7277" lon="-65.438"/><trkpt lat="45.7338" lon="-65.5252"/><trkpt lat="45.682" lon="-65.5851"/><trkpt lat="45.6311" lon="-65.697"/><trkpt lat="45.5621" lon="-65.7593"/><trkpt lat="45.5434" lon="-65.808"/><trkpt lat="45.4925" lon="-65.8163"/><trkpt lat="45.4607" lon="-65.8488"/><trkpt lat="45.4165" lon="-65.9408"/><trkpt lat="45.292" lon="-66.0515"/><trkpt lat="45.292" lon="-66.0515"/><trkpt lat="45.2547" lon="-66.0852"/><trkpt lat="45.1979" lon="-66.2112"/><trkpt lat="45.2053" lon="-66.2725"/><trkpt lat="45.1912" lon="-66.3038"/><trkpt lat="45.1929" lon="-66.3353"/><trkpt lat="45.1809" lon="-66.3591"/><trkpt lat="45.1883" lon="-66.4631"/><trkpt lat="45.1498" lon="-66.5054"/><trkpt lat="45.1049" lon="-66.6764"/><trkpt lat="45.1131" lon="-66.7404"/><trkpt lat="45.1315" lon="-66.7786"/><trkpt lat="45.134" lon="-66.846"/><trkpt lat="45.1997" lon="-67.002"/><trkpt lat="45.1942" lon="-67.0709"/><trkpt lat="45.1995" lon="-67.1097"/><trkpt lat="45.242" lon="-67.1949"/><trkpt lat="45.2219" lon="-67.2141"/><trkpt lat="45.2049" lon="-67.2944"/><trkpt lat="45.1958" lon="-67.2993"/><trkpt lat="45.1922" lon="-67.2875"/><trkpt lat="45.1706" lon="-67.2971"/><trkpt lat="45.1497" lon="-67.2859"/><trkpt lat="45.1284" lon="-67.3187"/><trkpt lat="45.1117" lon="-67.4237"/><trkpt lat="45.0864" lon="-67.5024"/><trkpt lat="45.0705" lon="-67.5147"/><trkpt lat="45.0582" lon="-67.5491"/><trkpt lat="45.0338" lon="-67.5608"/><trkpt lat="45.0011" lon="-67.5544"/><trkpt lat="44.9998" lon="-67.6214"/><trkpt lat="44.9518" lon="-67.6633"/><trkpt lat="44.9398" lon="-67.7296"/><trkpt lat="44.904" lon="-67.8082"/><trkpt lat="44.9104" lon="-67.8546"/><trkpt lat="44.8798" lon="-67.8637"/><trkpt lat="44.8704" lon="-67.931"/><trkpt lat="44.8741" lon="-67.9882"/><trkpt lat="44.8553" lon="-68.0556"/><trkpt lat="44.8305" lon="-68.0826"/><trkpt lat="44.8247" lon="-68.1054"/><trkpt lat="44.8403" lon="-68.1507"/><trkpt lat="44.8314" lon="-68.2529"/><trkpt lat="44.8591" lon="-68.2854"/><trkpt lat="44.8574" lon="-68.3202"/><trkpt lat="44.8323" lon="-68.3641"/><trkpt lat="44.8121" lon="-68.3622"/><trkpt lat="44.796" lon="-68.3812"/><trkpt lat="44.78" lon="-68.3729"/><trkpt lat="44.7492" lon="-68.4098"/><trkpt lat="44.7238" lon="-68.4047"/><trkpt lat="44.7201" lon="-68.4148"/><trkpt lat="44.6383" lon="-68.4266"/><trkpt lat="44.6009" lon="-68.4517"/><trkpt lat="44.569" lon="-68.4539"/><trkpt lat="44.5235" lon="-68.3974"/><trkpt lat="44.4834" lon="-68.366"/><trkpt lat="44.4218" lon="-68.364"/><trkpt lat="44.399" lon="-68.3346"/><trkpt lat="44.3689" lon="-68.3306"/><trkpt lat="44.3606" lon="-68.3046"/><trkpt lat="44.2925" lon="-68.275"/><trkpt lat="44.2943" lon="-68.2455"/><trkpt lat="44.3036" lon="-68.2392"/><trkpt lat="44.2994" lon="-68.2277"/><trkpt lat="44.3134" lon="-68.2141"/><trkpt lat="44.3088" lon="-68.2041"/><trkpt lat="44.3088" lon="-68.2041"/><trkpt lat="44.2925" lon="-68.275"/><trkpt lat="44.3606" lon="-68.3046"/><trkpt lat="44.3689" lon="-68.3306"/><trkpt lat="44.4223" lon="-68.3642"/><trkpt lat="44.4834" lon="-68.366"/><trkpt lat="44.5411" lon="-68.425"/><trkpt lat="44.54" lon="-68.498"/><trkpt lat="44.5678" lon="-68.6241"/><trkpt lat="44.5599" lon="-68.7076"/><trkpt lat="44.5768" lon="-68.7396"/><trkpt lat="44.5608" lon="-68.8068"/><trkpt lat="44.5081" lon="-68.8164"/><trkpt lat="44.4316" lon="-68.9603"/><trkpt lat="44.4342" lon="-69.0065"/><trkpt lat="44.3973" lon="-69.1354"/><trkpt lat="44.4106" lon="-69.1816"/><trkpt lat="44.4085" lon="-69.3116"/><trkpt lat="44.3682" lon="-69.3852"/><trkpt lat="44.3808" lon="-69.403"/><trkpt lat="44.3769" lon="-69.4485"/><trkpt lat="44.4107" lon="-69.4851"/><trkpt lat="44.4103" lon="-69.5277"/><trkpt lat="44.3839" lon="-69.6156"/><trkpt lat="44.3442" lon="-69.6544"/><trkpt lat="44.3239" lon="-69.764"/><trkpt lat="44.3077" lon="-69.7808"/><trkpt lat="44.3257" lon="-69.8554"/><trkpt lat="44.3184" lon="-69.935"/><trkpt lat="44.2553" lon="-70.0597"/><trkpt lat="44.2037" lon="-70.1025"/><trkpt lat="44.183" lon="-70.1636"/><trkpt lat="44.0975" lon="-70.2199"/><trkpt lat="44.0771" lon="-70.2978"/><trkpt lat="44.1113" lon="-70.3921"/><trkpt lat="44.0381" lon="-70.4247"/><trkpt lat="43.9873" lon="-70.473"/><trkpt lat="43.9859" lon="-70.5546"/><trkpt lat="43.9649" lon="-70.5777"/><trkpt lat="43.9905" lon="-70.6516"/><trkpt lat="44.054" lon="-70.7016"/><trkpt lat="44.0698" lon="-70.7769"/><trkpt lat="44.0628" lon="-70.8488"/><trkpt lat="44.0297" lon="-70.9038"/><trkpt lat="44.0215" lon="-70.9746"/><trkpt lat="43.9991" lon="-71.0"/><trkpt lat="43.9932" lon="-71.0833"/><trkpt lat="44.0175" lon="-71.1146"/><trkpt lat="44.1026" lon="-71.1531"/><trkpt lat="44.1053" lon="-71.1789"/><trkpt lat="44.1053" lon="-71.1789"/><trkpt lat="44.1096" lon="-71.1857"/><trkpt lat="44.1029" lon="-71.2004"/><trkpt lat="44.0853" lon="-71.2151"/><trkpt lat="44.0734" lon="-71.302"/><trkpt lat="44.0772" lon="-71.3404"/><trkpt lat="44.089" lon="-71.3532"/><trkpt lat="44.164" lon="-71.368"/><trkpt lat="44.173" lon="-71.3933"/><trkpt lat="44.2204" lon="-71.4105"/><trkpt lat="44.2637" lon="-71.459"/><trkpt lat="44.2761" lon="-71.562"/><trkpt lat="44.2667" lon="-71.619"/><trkpt lat="44.2821" lon="-71.6537"/><trkpt lat="44.2787" lon="-71.7174"/><trkpt lat="44.304" lon="-71.7793"/><trkpt lat="44.3034" lon="-71.7945"/><trkpt lat="44.3258" lon="-71.8013"/><trkpt lat="44.3142" lon="-71.8555"/><trkpt lat="44.3368" lon="-71.8879"/><trkpt lat="44.3704" lon="-71.9049"/><trkpt lat="44.3829" lon="-71.9226"/><trkpt lat="44.4116" lon="-71.9209"/><trkpt lat="44.4279" lon="-71.9443"/><trkpt lat="44.3977" lon="-72.0166"/><trkpt lat="44.429" lon="-72.0319"/><trkpt lat="44.4446" lon="-72.0564"/><trkpt lat="44.4116" lon="-72.1398"/><trkpt lat="44.4063" lon="-72.2133"/><trkpt lat="44.3891" lon="-72.2535"/><trkpt lat="44.3717" lon="-72.2649"/><trkpt lat="44.3638" lon="-72.318"/><trkpt lat="44.3438" lon="-72.3678"/><trkpt lat="44.3098" lon="-72.3978"/><trkpt lat="44.2917" lon="-72.3992"/><trkpt lat="44.2813" lon="-72.4187"/><trkpt lat="44.269" lon="-72.4601"/><trkpt lat="44.2713" lon="-72.4865"/><trkpt lat="44.2431" lon="-72.5059"/><trkpt lat="44.2372" lon="-72.5256"/><trkpt lat="44.2467" lon="-72.5497"/><trkpt lat="44.2155" lon="-72.5621"/><trkpt lat="44.2172" lon="-72.586"/><trkpt lat="44.171" lon="-72.5769"/><trkpt lat="44.107" lon="-72.6129"/><trkpt lat="44.0518" lon="-72.605"/><trkpt lat="43.987" lon="-72.628"/><trkpt lat="43.8806" lon="-72.6167"/><trkpt lat="43.8255" lon="-72.5814"/><trkpt lat="43.8282" lon="-72.6308"/><trkpt lat="43.8123" lon="-72.6396"/><trkpt lat="43.8072" lon="-72.6628"/><trkpt lat="43.7937" lon="-72.6639"/><trkpt lat="43.7587" lon="-72.7235"/><trkpt lat="43.7764" lon="-72.7673"/><trkpt lat="43.7757" lon="-72.8105"/><trkpt lat="43.7147" lon="-72.827"/><trkpt lat="43.6683" lon="-72.8063"/><trkpt lat="43.6629" lon="-72.8172"/><trkpt lat="43.6664" lon="-72.8612"/><trkpt lat="43.6483" lon="-72.9002"/><trkpt lat="43.652" lon="-72.9266"/><trkpt lat="43.6106" lon="-72.9726"/><trkpt lat="43.579" lon="-72.9678"/><trkpt lat="43.5933" lon="-73.0109"/><trkpt lat="43.5883" lon="-73.0463"/><trkpt lat="43.6054" lon="-73.0662"/><trkpt lat="43.6132" lon="-73.0941"/><trkpt lat="43.6165" lon="-73.1745"/><trkpt lat="43.6233" lon="-73.1905"/><trkpt lat="43.6058" lon="-73.2461"/><trkpt lat="43.6058" lon="-73.2782"/><trkpt lat="43.5898" lon="-73.288"/><trkpt lat="43.562" lon="-73.3341"/><trkpt lat="43.5503" lon="-73.3682"/><trkpt lat="43.5486" lon="-73.4054"/><trkpt lat="43.4734" lon="-73.4322"/><trkpt lat="43.4143" lon="-73.4879"/><trkpt lat="43.404" lon="-73.54"/><trkpt lat="43.4041" lon="-73.6003"/><trkpt lat="43.3693" lon="-73.698"/><trkpt lat="43.427" lon="-73.7121"/><trkpt lat="43.427" lon="-73.7121"/><trkpt lat="43.2676" lon="-73.6748"/><trkpt lat="43.0115" lon="-73.7897"/><trkpt lat="43.016" lon="-73.8304"/><trkpt lat="42.9742" lon="-73.9721"/><trkpt lat="42.9677" lon="-74.113"/><trkpt lat="42.9512" lon="-74.1206"/><trkpt lat="42.9395" lon="-74.1939"/><trkpt lat="42.9239" lon="-74.1971"/><trkpt lat="42.948" lon="-74.3831"/><trkpt lat="42.8972" lon="-74.4667"/><trkpt lat="42.8934" lon="-74.5237"/><trkpt lat="42.9151" lon="-74.6062"/><trkpt lat="42.9895" lon="-74.6715"/><trkpt lat="42.9899" lon="-74.7252"/><trkpt lat="43.0171" lon="-74.8061"/><trkpt lat="43.0047" lon="-74.8847"/><trkpt lat="43.018" lon="-75.0104"/><trkpt lat="43.0823" lon="-75.1155"/><trkpt lat="43.137" lon="-75.2731"/><trkpt lat="43.123" lon="-75.3873"/><trkpt lat="43.1363" lon="-75.4827"/><trkpt lat="43.1259" lon="-75.6097"/><trkpt lat="43.0902" lon="-75.7618"/><trkpt lat="43.0919" lon="-76.1573"/><trkpt lat="43.1181" lon="-76.2358"/><trkpt lat="43.0902" lon="-76.3241"/><trkpt lat="43.0529" lon="-76.6061"/><trkpt lat="43.0018" lon="-76.715"/><trkpt lat="42.9695" lon="-76.8523"/><trkpt lat="42.9028" lon="-76.836"/><trkpt lat="42.8773" lon="-76.9444"/><trkpt lat="42.8295" lon="-76.9007"/><trkpt lat="42.7181" lon="-76.901"/><trkpt lat="42.7181" lon="-76.901"/><trkpt lat="42.8433" lon="-76.9049"/><trkpt lat="42.8773" lon="-76.9445"/><trkpt lat="42.8701" lon="-76.9805"/><trkpt lat="42.9568" lon="-76.9821"/><trkpt lat="42.9989" lon="-77.4165"/><trkpt lat="43.0476" lon="-77.5769"/><trkpt lat="43.0103" lon="-78.3928"/><trkpt lat="42.9504" lon="-78.6099"/><trkpt lat="42.9519" lon="-78.758"/><trkpt lat="42.7645" lon="-78.8196"/><trkpt lat="42.5271" lon="-79.138"/><trkpt lat="42.4641" lon="-79.2975"/><trkpt lat="42.4551" lon="-79.3668"/><trkpt lat="42.4168" lon="-79.4076"/><trkpt lat="42.2576" lon="-79.7554"/><trkpt lat="42.1693" lon="-79.8512"/><trkpt lat="42.0541" lon="-80.0693"/><trkpt lat="42.0192" lon="-80.1877"/><trkpt lat="42.0015" lon="-80.1917"/><trkpt lat="42.0015" lon="-80.1917"/><trkpt lat="42.0054" lon="-80.2395"/><trkpt lat="41.9466" lon="-80.3856"/><trkpt lat="41.9428" lon="-80.5081"/><trkpt lat="41.8854" lon="-80.6582"/><trkpt lat="41.8323" lon="-80.7402"/><trkpt lat="41.8265" lon="-80.7918"/><trkpt lat="41.775" lon="-80.8777"/><trkpt lat="41.7596" lon="-81.0462"/><trkpt lat="41.651" lon="-81.2914"/><trkpt lat="41.6395" lon="-81.3776"/><trkpt lat="41.6018" lon="-81.4398"/><trkpt lat="41.5198" lon="-81.4453"/><trkpt lat="41.4976" lon="-81.4842"/><trkpt lat="41.4247" lon="-81.5087"/><trkpt lat="41.2821" lon="-81.5284"/><trkpt lat="41.2358" lon="-81.5987"/><trkpt lat="41.1889" lon="-81.7511"/><trkpt lat="41.0333" lon="-81.8852"/><trkpt lat="40.9931" lon="-82.0257"/><trkpt lat="40.9118" lon="-82.141"/><trkpt lat="40.7948" lon="-82.4004"/><trkpt lat="40.6863" lon="-82.5233"/><trkpt lat="40.5785" lon="-82.6045"/><trkpt lat="40.4336" lon="-82.8131"/><trkpt lat="40.3761" lon="-82.8276"/><trkpt lat="40.3008" lon="-82.9234"/><trkpt lat="40.205" lon="-82.9317"/><trkpt lat="40.1598" lon="-82.9682"/><trkpt lat="40.0608" lon="-82.9983"/><trkpt lat="39.9799" lon="-82.9868"/><trkpt lat="39.9644" lon="-83.0305"/><trkpt lat="39.9813" lon="-83.2453"/><trkpt lat="39.9423" lon="-83.4414"/><trkpt lat="39.9352" lon="-83.6673"/><trkpt lat="39.8906" lon="-83.7363"/><trkpt lat="39.893" lon="-83.9194"/><trkpt lat="39.8666" lon="-83.9957"/><trkpt lat="39.7837" lon="-84.004"/><trkpt lat="39.7758" lon="-84.0521"/><trkpt lat="39.71" lon="-84.0603"/></trkseg></trk></gpx>